{
    "RECORDS": [
        {
            "CCSDS_OPM_VERS": 29158.61,
            "CREATION_DATE": "2019-09-25T11:58:12.243Z",
            "ORIGINATOR": "Paucek Inc",
            "OBJECT_NAME": "0x2",
            "OBJECT_ID": "0x9",
            "CENTER_NAME": "0xE",
            "REF_FRAME": null,
            "REF_FRAME_EPOCH": "2080-09-24T04:15:02.370Z",
            "TIME_SYSTEM": "0x3",
            "COMMENT": "0x2",
            "EPOCH": "2001-03-06T14:24:55.040Z",
            "X": 15698.26,
            "Y": 2925.99,
            "Z": 54836.75,
            "X_DOT": 56269.05,
            "Y_DOT": 96260.21,
            "Z_DOT": 93501.11,
            "SEMI_MAJOR_AXIS": 6198.81,
            "ECCENTRICITY": 89678.37,
            "INCLINATION": 58079.93,
            "RA_OF_ASC_NODE": 87902.69,
            "ARG_OF_PERICENTER": 79512.95,
            "TRUE_ANOMALY": 76558.2,
            "MEAN_ANOMALY": 62281.68,
            "GM": 17759.5,
            "MASS": 42488.59,
            "SOLAR_RAD_AREA": 79312.29,
            "SOLAR_RAD_COEFF": 92572.2,
            "DRAG_AREA": 30916.6,
            "DRAG_COEFF": 13633.52,
            "COV_REF_FRAME": null,
            "CX_X": 53326.94,
            "CY_X": 84668.22,
            "CY_Y": 25711.8,
            "CZ_X": 98024.7,
            "CZ_Y": 13905.88,
            "CZ_Z": 91381.78,
            "CX_DOT_X": 58318.53,
            "CX_DOT_Y": 32995.76,
            "CX_DOT_Z": 3824.12,
            "CX_DOT_X_DOT": 85824.79,
            "CY_DOT_X": 22664.27,
            "CY_DOT_Y": 88959.31,
            "CY_DOT_Z": 38110.46,
            "CY_DOT_X_DOT": 5655.62,
            "CY_DOT_Y_DOT": 35323.89,
            "CZ_DOT_X": 28315.22,
            "CZ_DOT_Y": 11793.66,
            "CZ_DOT_Z": 62619.12,
            "CZ_DOT_X_DOT": 4945.46,
            "CZ_DOT_Y_DOT": 32740.19,
            "CZ_DOT_Z_DOT": 23778.12,
            "MANEUVERS": [
                {
                    "MAN_EPOCH_IGNITION": "2034-04-10T21:07:11.212Z",
                    "MAN_DURATION": 96492.17,
                    "MAN_DELTA_MASS": 99041.05,
                    "MAN_REF_FRAME": null,
                    "MAN_DV_1": 94676.62,
                    "MAN_DV_2": 84106,
                    "MAN_DV_3": 42960.68
                },
                {
                    "MAN_EPOCH_IGNITION": "2088-12-30T20:46:29.826Z",
                    "MAN_DURATION": 22986.96,
                    "MAN_DELTA_MASS": 46192.79,
                    "MAN_REF_FRAME": null,
                    "MAN_DV_1": 53972.17,
                    "MAN_DV_2": 3361.36,
                    "MAN_DV_3": 31621.63
                }
            ],
            "USER_DEFINED_BIP_0044_TYPE": 2072932223,
            "USER_DEFINED_OBJECT_DESIGNATOR": "0x1",
            "USER_DEFINED_EARTH_MODEL": "0x5",
            "USER_DEFINED_EPOCH_TIMESTAMP": 9040.53,
            "USER_DEFINED_EPOCH_MICROSECONDS": 3282.08
        },
        {
            "CCSDS_OPM_VERS": 27498.61,
            "CREATION_DATE": "2095-06-08T23:44:58.378Z",
            "ORIGINATOR": "Schinner, West and Brown",
            "OBJECT_NAME": "0x8",
            "OBJECT_ID": "0xD",
            "CENTER_NAME": "0xf",
            "REF_FRAME": null,
            "REF_FRAME_EPOCH": "2072-08-02T05:26:54.145Z",
            "TIME_SYSTEM": "0xB",
            "COMMENT": "0x3",
            "EPOCH": "2013-10-28T01:34:30.332Z",
            "X": 68985.02,
            "Y": 60539.18,
            "Z": 11362.33,
            "X_DOT": 40414.9,
            "Y_DOT": 35702.74,
            "Z_DOT": 60764.71,
            "SEMI_MAJOR_AXIS": 64931.55,
            "ECCENTRICITY": 27934.36,
            "INCLINATION": 11738.74,
            "RA_OF_ASC_NODE": 36940.31,
            "ARG_OF_PERICENTER": 55600.48,
            "TRUE_ANOMALY": 21774.92,
            "MEAN_ANOMALY": 36400.56,
            "GM": 69604.03,
            "MASS": 10765.41,
            "SOLAR_RAD_AREA": 89367.86,
            "SOLAR_RAD_COEFF": 79482.64,
            "DRAG_AREA": 95333.73,
            "DRAG_COEFF": 56818.79,
            "COV_REF_FRAME": null,
            "CX_X": 18996.5,
            "CY_X": 98555.13,
            "CY_Y": 77296.15,
            "CZ_X": 39608.96,
            "CZ_Y": 48869.55,
            "CZ_Z": 15007.84,
            "CX_DOT_X": 48758.93,
            "CX_DOT_Y": 53748.31,
            "CX_DOT_Z": 95553.17,
            "CX_DOT_X_DOT": 38317,
            "CY_DOT_X": 45289.64,
            "CY_DOT_Y": 74307.91,
            "CY_DOT_Z": 52979.88,
            "CY_DOT_X_DOT": 59635.42,
            "CY_DOT_Y_DOT": 98283.15,
            "CZ_DOT_X": 24778.96,
            "CZ_DOT_Y": 66188.37,
            "CZ_DOT_Z": 5344.52,
            "CZ_DOT_X_DOT": 48737.34,
            "CZ_DOT_Y_DOT": 55132.88,
            "CZ_DOT_Z_DOT": 88674.52,
            "MANEUVERS": [
                {
                    "MAN_EPOCH_IGNITION": "2073-10-11T14:28:07.748Z",
                    "MAN_DURATION": 35359.09,
                    "MAN_DELTA_MASS": 42204.97,
                    "MAN_REF_FRAME": null,
                    "MAN_DV_1": 85190.83,
                    "MAN_DV_2": 22315.35,
                    "MAN_DV_3": 21786.88
                },
                {
                    "MAN_EPOCH_IGNITION": "2068-01-18T12:20:58.231Z",
                    "MAN_DURATION": 18427.94,
                    "MAN_DELTA_MASS": 63823.33,
                    "MAN_REF_FRAME": null,
                    "MAN_DV_1": 43224.41,
                    "MAN_DV_2": 94026.52,
                    "MAN_DV_3": 50808.18
                }
            ],
            "USER_DEFINED_BIP_0044_TYPE": 997862729,
            "USER_DEFINED_OBJECT_DESIGNATOR": "0xa",
            "USER_DEFINED_EARTH_MODEL": "0x8",
            "USER_DEFINED_EPOCH_TIMESTAMP": 71555.74,
            "USER_DEFINED_EPOCH_MICROSECONDS": 64972.97
        },
        {
            "CCSDS_OPM_VERS": 90309.26,
            "CREATION_DATE": "2071-10-15T12:01:20.777Z",
            "ORIGINATOR": "Schmidt - Parisian",
            "OBJECT_NAME": "0xf",
            "OBJECT_ID": "0xf",
            "CENTER_NAME": "0xA",
            "REF_FRAME": null,
            "REF_FRAME_EPOCH": "2038-01-20T23:10:09.470Z",
            "TIME_SYSTEM": "0xA",
            "COMMENT": "0xF",
            "EPOCH": "2001-12-24T23:32:59.678Z",
            "X": 18329.62,
            "Y": 40534.36,
            "Z": 13277.09,
            "X_DOT": 21606.93,
            "Y_DOT": 12134.91,
            "Z_DOT": 92990.81,
            "SEMI_MAJOR_AXIS": 98091.97,
            "ECCENTRICITY": 44249.81,
            "INCLINATION": 53590.69,
            "RA_OF_ASC_NODE": 100.46,
            "ARG_OF_PERICENTER": 91091.79,
            "TRUE_ANOMALY": 13839.77,
            "MEAN_ANOMALY": 83985.28,
            "GM": 43272.17,
            "MASS": 48643.79,
            "SOLAR_RAD_AREA": 9146.95,
            "SOLAR_RAD_COEFF": 21677.52,
            "DRAG_AREA": 30102.62,
            "DRAG_COEFF": 7392.4,
            "COV_REF_FRAME": null,
            "CX_X": 71702.65,
            "CY_X": 27339.54,
            "CY_Y": 20886.76,
            "CZ_X": 45180.95,
            "CZ_Y": 46509.68,
            "CZ_Z": 90991.29,
            "CX_DOT_X": 71729.71,
            "CX_DOT_Y": 92027.03,
            "CX_DOT_Z": 31649.66,
            "CX_DOT_X_DOT": 40006.86,
            "CY_DOT_X": 82186.65,
            "CY_DOT_Y": 39871.6,
            "CY_DOT_Z": 62231.49,
            "CY_DOT_X_DOT": 21158.08,
            "CY_DOT_Y_DOT": 38306.61,
            "CZ_DOT_X": 12253.18,
            "CZ_DOT_Y": 20114.44,
            "CZ_DOT_Z": 58945.41,
            "CZ_DOT_X_DOT": 48543.85,
            "CZ_DOT_Y_DOT": 51901.68,
            "CZ_DOT_Z_DOT": 23991.95,
            "MANEUVERS": [
                {
                    "MAN_EPOCH_IGNITION": "2069-05-15T05:01:19.475Z",
                    "MAN_DURATION": 96326.64,
                    "MAN_DELTA_MASS": 57216.47,
                    "MAN_REF_FRAME": null,
                    "MAN_DV_1": 5327.04,
                    "MAN_DV_2": 53401.44,
                    "MAN_DV_3": 73329.61
                },
                {
                    "MAN_EPOCH_IGNITION": "1995-02-03T20:35:36.510Z",
                    "MAN_DURATION": 8763.5,
                    "MAN_DELTA_MASS": 81694.5,
                    "MAN_REF_FRAME": null,
                    "MAN_DV_1": 36477.07,
                    "MAN_DV_2": 50993.07,
                    "MAN_DV_3": 30060.77
                }
            ],
            "USER_DEFINED_BIP_0044_TYPE": 663340089,
            "USER_DEFINED_OBJECT_DESIGNATOR": "0xA",
            "USER_DEFINED_EARTH_MODEL": "0xf",
            "USER_DEFINED_EPOCH_TIMESTAMP": 12412.27,
            "USER_DEFINED_EPOCH_MICROSECONDS": 60299.05
        }
    ]
}